[{"OBJECT_NAME":"YAOGAN-30 08A","OBJECT_ID":"2020-076A","EPOCH":"2026-03-09T23:16:56.591616","MEAN_MOTION":15.02157833,"ECCENTRICITY":0.00011165,"INCLINATION":34.995,"RA_OF_ASC_NODE":335.7414,"ARG_OF_PERICENTER":272.5686,"MEAN_ANOMALY":87.4894,"EPHEMERIS_TYPE":0,"CLASSIFICATION_TYPE":"U","NORAD_CAT_ID":46807,"ELEMENT_SET_NO":999,"REV_AT_EPOCH":29318,"BSTAR":0.00031078635,"MEAN_MOTION_DOT":4.146e-5,"MEAN_MOTION_DDOT":0},{"OBJECT_NAME":"MATS","OBJECT_ID":"2022-147A","EPOCH":"2026-03-09T23:39:00.807264","MEAN_MOTION":15.0466868,"ECCENTRICITY":0.00129708,"INCLINATION":97.6844,"RA_OF_ASC_NODE":71.061,"ARG_OF_PERICENTER":166.9988,"MEAN_ANOMALY":193.1575,"EPHEMERIS_TYPE":0,"CLASSIFICATION_TYPE":"U","NORAD_CAT_ID":54227,"ELEMENT_SET_NO":999,"REV_AT_EPOCH":18284,"BSTAR":0.00029670702,"MEAN_MOTION_DOT":4.118e-5,"MEAN_MOTION_DDOT":0}]
